ALOS (DAICHI)           
1 28931U 06002A   26046.44543157  .00001714  00000+0  29578-3 0  9998
2 28931  98.1181   2.5193 0001834  59.0224 301.1161 14.69735971 70216
H-2A R/B                
1 28932U 06002B   26046.36813979  .00009783  00000+0  49642-3 0  9990
2 28932  98.2366 191.4880 0052356 318.1428  41.5804 15.15952807 91059
RESURS-DK 1             
1 29228U 06021A   26046.38284090  .00002746  00000+0  16298-3 0  9991
2 29228  69.9337 294.7222 0003872 194.3902 165.7155 15.12613834 84150
CZ-4B R/B               
1 29507U 06046C   26046.50890844  .00005280  00000+0  26966-3 0  9991
2 29507  97.5641  91.4761 0032958 347.2654  12.7743 15.16662498 56680
CZ-2C R/B               
1 31114U 07010B   26046.32271756  .00000128  00000+0  77866-4 0  9997
2 31114  98.3971 160.7242 0058901   0.4473 359.6747 14.20238302976549
COSMO-SKYMED 1          
1 31598U 07023A   26046.59851611  .00004866  00000+0  43504-3 0  9994
2 31598  97.8853 237.4563 0001244  94.8665 265.2698 14.96356933 11602
COSMOS 2428             
1 31792U 07029A   26046.02184368  .00000271  00000+0  17135-3 0  9999
2 31792  70.9399 250.9260 0007795 302.7740  57.2630 14.12937059960892
SL-16 R/B               
1 31793U 07029B   26046.50492455  .00000123  00000+0  88287-4 0  9995
2 31793  70.9743 219.0162 0002251 283.2412 137.0891 14.14836156962238
KORONAS-FOTON           
1 33504U 09003A   26046.19638800  .00015200  00000+0  34660-3 0  9999
2 33504  82.4315 299.2517 0009171 233.5221 126.5181 15.42731033942278
CZ-2C R/B               
1 37731U 11030B   26046.46390901  .00001893  00000+0  24433-3 0  9995
2 37731  97.8507   4.1802 0054111  63.3668  51.6958 14.81134247786806
H-2A R/B                
1 38341U 12025E   26046.50874274  .00005175  00000+0  47017-3 0  9993
2 38341  98.4686  11.7900 0045404  27.2910 333.0680 14.94968238744909
SHIJIAN-16 (SJ-16)      
1 39358U 13057A   26046.63946834  .00000906  00000+0  91456-4 0  9998
2 39358  74.9697 226.8282 0016529 167.9208 192.2380 14.92254989668219
