CCSDS_OMM_VERS = 2.0
CREATION_DATE  = 
ORIGINATOR     = 

OBJECT_NAME    = ALOS (DAICHI)
OBJECT_ID      = 2006-002A
CENTER_NAME    = EARTH
REF_FRAME      = TEME
TIME_SYSTEM    = UTC
MEAN_ELEMENT_THEORY = SGP/SGP4

EPOCH          = 2026-02-15T10:41:25.287648
MEAN_MOTION    = 14.69735971
ECCENTRICITY   = .00018345
INCLINATION    = 98.1181
RA_OF_ASC_NODE = 2.5193
ARG_OF_PERICENTER = 59.0224
MEAN_ANOMALY   = 301.1161

EPHEMERIS_TYPE = 0
CLASSIFICATION_TYPE = U
NORAD_CAT_ID   = 28931
ELEMENT_SET_NO = 999
REV_AT_EPOCH   = 7021
BSTAR          = .29577983E-3
MEAN_MOTION_DOT = .1714E-4
MEAN_MOTION_DDOT = 0

CCSDS_OMM_VERS = 2.0
CREATION_DATE  = 
ORIGINATOR     = 

OBJECT_NAME    = H-2A R/B
OBJECT_ID      = 2006-002B
CENTER_NAME    = EARTH
REF_FRAME      = TEME
TIME_SYSTEM    = UTC
MEAN_ELEMENT_THEORY = SGP/SGP4

EPOCH          = 2026-02-15T08:50:07.277856
MEAN_MOTION    = 15.15952807
ECCENTRICITY   = .00523561
INCLINATION    = 98.2366
RA_OF_ASC_NODE = 191.4880
ARG_OF_PERICENTER = 318.1428
MEAN_ANOMALY   = 41.5804

EPHEMERIS_TYPE = 0
CLASSIFICATION_TYPE = U
NORAD_CAT_ID   = 28932
ELEMENT_SET_NO = 999
REV_AT_EPOCH   = 9105
BSTAR          = .49642304E-3
MEAN_MOTION_DOT = .9783E-4
MEAN_MOTION_DDOT = 0

CCSDS_OMM_VERS = 2.0
CREATION_DATE  = 
ORIGINATOR     = 

OBJECT_NAME    = RESURS-DK 1
OBJECT_ID      = 2006-021A
CENTER_NAME    = EARTH
REF_FRAME      = TEME
TIME_SYSTEM    = UTC
MEAN_ELEMENT_THEORY = SGP/SGP4

EPOCH          = 2026-02-15T09:11:17.453760
MEAN_MOTION    = 15.12613834
ECCENTRICITY   = .00038724
INCLINATION    = 69.9337
RA_OF_ASC_NODE = 294.7222
ARG_OF_PERICENTER = 194.3902
MEAN_ANOMALY   = 165.7155

EPHEMERIS_TYPE = 0
CLASSIFICATION_TYPE = U
NORAD_CAT_ID   = 29228
ELEMENT_SET_NO = 999
REV_AT_EPOCH   = 8415
BSTAR          = .16297875E-3
MEAN_MOTION_DOT = .2746E-4
MEAN_MOTION_DDOT = 0

CCSDS_OMM_VERS = 2.0
CREATION_DATE  = 
ORIGINATOR     = 

OBJECT_NAME    = CZ-4B R/B
OBJECT_ID      = 2006-046C
CENTER_NAME    = EARTH
REF_FRAME      = TEME
TIME_SYSTEM    = UTC
MEAN_ELEMENT_THEORY = SGP/SGP4

EPOCH          = 2026-02-15T12:12:49.689216
MEAN_MOTION    = 15.16662498
ECCENTRICITY   = .00329588
INCLINATION    = 97.5641
RA_OF_ASC_NODE = 91.4761
ARG_OF_PERICENTER = 347.2654
MEAN_ANOMALY   = 12.7743

EPHEMERIS_TYPE = 0
CLASSIFICATION_TYPE = U
NORAD_CAT_ID   = 29507
ELEMENT_SET_NO = 999
REV_AT_EPOCH   = 5668
BSTAR          = .26966426E-3
MEAN_MOTION_DOT = .528E-4
MEAN_MOTION_DDOT = 0

CCSDS_OMM_VERS = 2.0
CREATION_DATE  = 
ORIGINATOR     = 

OBJECT_NAME    = CZ-2C R/B
OBJECT_ID      = 2007-010B
CENTER_NAME    = EARTH
REF_FRAME      = TEME
TIME_SYSTEM    = UTC
MEAN_ELEMENT_THEORY = SGP/SGP4

EPOCH          = 2026-02-15T07:44:42.797184
MEAN_MOTION    = 14.20238302
ECCENTRICITY   = .0058901
INCLINATION    = 98.3971
RA_OF_ASC_NODE = 160.7242
ARG_OF_PERICENTER = 0.4473
MEAN_ANOMALY   = 359.6747

EPHEMERIS_TYPE = 0
CLASSIFICATION_TYPE = U
NORAD_CAT_ID   = 31114
ELEMENT_SET_NO = 999
REV_AT_EPOCH   = 97654
BSTAR          = .77866E-4
MEAN_MOTION_DOT = .128E-5
MEAN_MOTION_DDOT = 0

CCSDS_OMM_VERS = 2.0
CREATION_DATE  = 
ORIGINATOR     = 

OBJECT_NAME    = COSMO-SKYMED 1
OBJECT_ID      = 2007-023A
CENTER_NAME    = EARTH
REF_FRAME      = TEME
TIME_SYSTEM    = UTC
MEAN_ELEMENT_THEORY = SGP/SGP4

EPOCH          = 2026-02-15T14:21:51.791904
MEAN_MOTION    = 14.96356933
ECCENTRICITY   = .00012446
INCLINATION    = 97.8853
RA_OF_ASC_NODE = 237.4563
ARG_OF_PERICENTER = 94.8665
MEAN_ANOMALY   = 265.2698

EPHEMERIS_TYPE = 0
CLASSIFICATION_TYPE = U
NORAD_CAT_ID   = 31598
ELEMENT_SET_NO = 999
REV_AT_EPOCH   = 1160
BSTAR          = .43504337E-3
MEAN_MOTION_DOT = .4866E-4
MEAN_MOTION_DDOT = 0

CCSDS_OMM_VERS = 2.0
CREATION_DATE  = 
ORIGINATOR     = 

OBJECT_NAME    = COSMOS 2428
OBJECT_ID      = 2007-029A
CENTER_NAME    = EARTH
REF_FRAME      = TEME
TIME_SYSTEM    = UTC
MEAN_ELEMENT_THEORY = SGP/SGP4

EPOCH          = 2026-02-15T00:31:27.293952
MEAN_MOTION    = 14.12937059
ECCENTRICITY   = .0007795
INCLINATION    = 70.9399
RA_OF_ASC_NODE = 250.9260
ARG_OF_PERICENTER = 302.7740
MEAN_ANOMALY   = 57.2630

EPHEMERIS_TYPE = 0
CLASSIFICATION_TYPE = U
NORAD_CAT_ID   = 31792
ELEMENT_SET_NO = 999
REV_AT_EPOCH   = 96089
BSTAR          = .17135024E-3
MEAN_MOTION_DOT = .271E-5
MEAN_MOTION_DDOT = 0

CCSDS_OMM_VERS = 2.0
CREATION_DATE  = 
ORIGINATOR     = 

OBJECT_NAME    = SL-16 R/B
OBJECT_ID      = 2007-029B
CENTER_NAME    = EARTH
REF_FRAME      = TEME
TIME_SYSTEM    = UTC
MEAN_ELEMENT_THEORY = SGP/SGP4

EPOCH          = 2026-02-15T12:07:05.481120
MEAN_MOTION    = 14.14836156
ECCENTRICITY   = .00022516
INCLINATION    = 70.9743
RA_OF_ASC_NODE = 219.0162
ARG_OF_PERICENTER = 283.2412
MEAN_ANOMALY   = 137.0891

EPHEMERIS_TYPE = 0
CLASSIFICATION_TYPE = U
NORAD_CAT_ID   = 31793
ELEMENT_SET_NO = 999
REV_AT_EPOCH   = 96223
BSTAR          = .88286619E-4
MEAN_MOTION_DOT = .123E-5
MEAN_MOTION_DDOT = 0

CCSDS_OMM_VERS = 2.0
CREATION_DATE  = 
ORIGINATOR     = 

OBJECT_NAME    = KORONAS-FOTON
OBJECT_ID      = 2009-003A
CENTER_NAME    = EARTH
REF_FRAME      = TEME
TIME_SYSTEM    = UTC
MEAN_ELEMENT_THEORY = SGP/SGP4

EPOCH          = 2026-02-15T04:42:47.923200
MEAN_MOTION    = 15.42731033
ECCENTRICITY   = .0009171
INCLINATION    = 82.4315
RA_OF_ASC_NODE = 299.2517
ARG_OF_PERICENTER = 233.5221
MEAN_ANOMALY   = 126.5181

EPHEMERIS_TYPE = 0
CLASSIFICATION_TYPE = U
NORAD_CAT_ID   = 33504
ELEMENT_SET_NO = 999
REV_AT_EPOCH   = 94227
BSTAR          = .3466E-3
MEAN_MOTION_DOT = .152E-3
MEAN_MOTION_DDOT = 0

CCSDS_OMM_VERS = 2.0
CREATION_DATE  = 
ORIGINATOR     = 

OBJECT_NAME    = CZ-2C R/B
OBJECT_ID      = 2011-030B
CENTER_NAME    = EARTH
REF_FRAME      = TEME
TIME_SYSTEM    = UTC
MEAN_ELEMENT_THEORY = SGP/SGP4

EPOCH          = 2026-02-15T11:08:01.738464
MEAN_MOTION    = 14.81134247
ECCENTRICITY   = .00541111
INCLINATION    = 97.8507
RA_OF_ASC_NODE = 4.1802
ARG_OF_PERICENTER = 63.3668
MEAN_ANOMALY   = 51.6958

EPHEMERIS_TYPE = 0
CLASSIFICATION_TYPE = U
NORAD_CAT_ID   = 37731
ELEMENT_SET_NO = 999
REV_AT_EPOCH   = 78680
BSTAR          = .24433176E-3
MEAN_MOTION_DOT = .1893E-4
MEAN_MOTION_DDOT = 0

CCSDS_OMM_VERS = 2.0
CREATION_DATE  = 
ORIGINATOR     = 

OBJECT_NAME    = H-2A R/B
OBJECT_ID      = 2012-025E
CENTER_NAME    = EARTH
REF_FRAME      = TEME
TIME_SYSTEM    = UTC
MEAN_ELEMENT_THEORY = SGP/SGP4

EPOCH          = 2026-02-15T12:12:35.372736
MEAN_MOTION    = 14.94968238
ECCENTRICITY   = .00454046
INCLINATION    = 98.4686
RA_OF_ASC_NODE = 11.7900
ARG_OF_PERICENTER = 27.2910
MEAN_ANOMALY   = 333.0680

EPHEMERIS_TYPE = 0
CLASSIFICATION_TYPE = U
NORAD_CAT_ID   = 38341
ELEMENT_SET_NO = 999
REV_AT_EPOCH   = 74490
BSTAR          = .47017262E-3
MEAN_MOTION_DOT = .5175E-4
MEAN_MOTION_DDOT = 0

CCSDS_OMM_VERS = 2.0
CREATION_DATE  = 
ORIGINATOR     = 

OBJECT_NAME    = SHIJIAN-16 (SJ-16)
OBJECT_ID      = 2013-057A
CENTER_NAME    = EARTH
REF_FRAME      = TEME
TIME_SYSTEM    = UTC
MEAN_ELEMENT_THEORY = SGP/SGP4

EPOCH          = 2026-02-15T15:20:50.064576
MEAN_MOTION    = 14.92254989
ECCENTRICITY   = .00165291
INCLINATION    = 74.9697
RA_OF_ASC_NODE = 226.8282
ARG_OF_PERICENTER = 167.9208
MEAN_ANOMALY   = 192.2380

EPHEMERIS_TYPE = 0
CLASSIFICATION_TYPE = U
NORAD_CAT_ID   = 39358
ELEMENT_SET_NO = 999
REV_AT_EPOCH   = 66821
BSTAR          = .91456064E-4
MEAN_MOTION_DOT = .906E-5
MEAN_MOTION_DDOT = 0

